satname,norad_id,inclination_deg,eccentricity,mean_motion_rev_per_day,perigee_km,apogee_km,l1,l2
STARLINK-1297,45395,53.0542,0.0001278,15.46061554,427.39083305724307,429.1305483069809,1 45395U 20019AM  26028.00003472  .00053279  00000+0  10738-2 0  9998,2 45395  53.0542 325.9727 0001278 113.5318 216.5418 15.46061554  5753
STARLINK-1307,45397,53.0575,0.0002575,15.45418807,428.39463524889834,431.9009019047153,1 45397U 20019AP  26027.43094735  .00176764  00000+0  35636-2 0  9997,2 45397  53.0575 328.1438 0002575  51.2421 308.8815 15.45418807323664
STARLINK-1255,45399,53.0462,0.0006827,15.44120867,429.3118356736586,438.61307627084443,1 45399U 20019AR  26028.00003472  .00072452  00000+0  15517-2 0  9996,2 45399  53.0462 297.4257 0006827  99.6850 181.4034 15.44120867  5798
STARLINK-1260,45404,53.1568,0.0001805,15.29354548,476.5031136454272,478.9780854588653,1 45404U 20019AW  26028.00003472 -.00007021  00000+0 -23118-3 0  9992,2 45404  53.1568 318.1882 0001805 101.0937 250.0167 15.29354548  5690
STARLINK-1263,45405,53.1554,0.000164,15.29353462,476.6194806838648,478.8682096010725,1 45405U 20019AX  26028.00003472 -.00011387  00000+0 -38287-3 0  9996,2 45405  53.1554 318.2058 0001640  93.7770 328.3837 15.29353462  5643
STARLINK-1265,45406,53.1578,0.0001566,15.2936468,476.63669382495846,478.7839452054295,1 45406U 20019AY  26028.00003472 -.00054136  00000+0 -18768-2 0  9997,2 45406  53.1578 318.2771 0001566  96.3314 247.0277 15.29364680  5641
STARLINK-1278,45408,53.0505,0.000624,15.47292765,420.40461735291774,428.8944949750103,1 45408U 20019BA  26027.81657345  .00108918  00000+0  20791-2 0  9996,2 45408  53.0505 327.0225 0006240  45.7941 314.3577 15.47292765323617
STARLINK-1296,45412,53.1374,0.0001628,15.25349186,488.6190055072102,490.85518531267644,1 45412U 20019BE  26028.00003472  .00784645  00000+0  28435-1 0  9998,2 45412  53.1374 318.1543 0001628  77.2879 313.6495 15.25349186  5643
STARLINK-1298,45413,53.0425,0.0007805,15.76570068,334.92344243164644,345.4107150985983,1 45413U 20019BF  26028.00003472  .00175738  00000+0  10613-2 0  9996,2 45413  53.0425 259.8809 0007805 148.5465  48.7185 15.76570068  5825
STARLINK-1309,45414,53.0694,0.0001116,15.27662989,482.0349277310679,483.5662890052563,1 45414U 20019BG  26028.00003472  .01760809  00000+0  57776-1 0  9997,2 45414  53.0694 318.3091 0001116  84.3494 116.3287 15.27662989  5753
STARLINK-1316,45415,53.1575,0.0001627,15.29355711,476.62167312601196,478.8525745659117,1 45415U 20019BH  26028.00003472 -.00034183  00000+0 -11776-2 0  9999,2 45415  53.1575 318.2772 0001627  99.5909   3.7170 15.29355711  5545
STARLINK-1318,45416,53.0395,0.0004694,15.83998924,316.00130347861614,322.28871182740113,1 45416U 20019BJ  26028.00003472  .00291501  00000+0  12361-2 0  9998,2 45416  53.0395 246.9032 0004694 187.3902 151.2792 15.83998924  5949
STARLINK-1286,45417,53.052,0.0002229,15.47698144,421.94555343650336,424.97770610565476,1 45417U 20019BK  26027.12649753  .00045835  00000+0  87503-3 0  9997,2 45417  53.0520 329.9446 0002229  47.2517 312.8677 15.47698144323782
STARLINK-1308,45419,53.0569,0.0001504,15.41601147,440.35761745529726,442.4089291535074,1 45419U 20019BM  26028.00003472  .00165106  00000+0  37921-2 0  9991,2 45419  53.0569 346.0465 0001504  95.7628 210.1902 15.41601147  5648
STARLINK-1329,45531,53.0541,0.0006918,15.47402474,419.6220674033266,429.0339579948977,1 45531U 20025A   26027.42451455  .00103708  00000+0  19736-2 0  9990,2 45531  53.0541 279.9100 0006918 108.2024 251.9737 15.47402474319046
STARLINK-1338,45532,53.0515,0.0005078,15.45890387,425.30655810025564,432.2196458438184,1 45532U 20025B   26025.70626240  .00109887  00000+0  22015-2 0  9994,2 45532  53.0515 291.1053 0005078 114.8434 245.3101 15.45890387318734
STARLINK-1350,45535,53.0718,0.0001967,15.34948769,459.7273965097593,462.41794159356505,1 45535U 20025E   26026.93946063  .00015617  00000+0  46424-3 0  9999,2 45535  53.0718 229.0446 0001967 120.6826 239.4370 15.34948769319741
STARLINK-1362,45538,53.054,0.0001534,15.06819468,544.8640958794285,546.9883984836642,1 45538U 20025H   26027.73099171  .00021896  00000+0  14676-2 0  9999,2 45538  53.0540 290.2081 0001534  89.3384 270.7781 15.06819468318927
STARLINK-1368,45540,53.0756,0.0001147,15.11915975,529.5649035168217,531.1497121110333,1 45540U 20025K   26028.00003472  .00033750  00000+0  19557-2 0  9997,2 45540  53.0756 289.1971 0001147  77.0038 323.5518 15.11915975  5692
STARLINK-1371,45542,53.0542,0.0003929,15.41196819,439.89608243440216,445.25579866308635,1 45542U 20025M   26027.71022719  .00093404  00000+0  21986-2 0  9992,2 45542  53.0542 284.2946 0003929 119.3911 240.7486 15.41196819319003
STARLINK-1372,45543,53.0545,0.0001536,15.06409002,546.1202389414739,548.2476975429181,1 45543U 20025N   26026.01808343  .00001125  00000+0  94378-4 0  9996,2 45543  53.0545 298.1790 0001536  78.8291 281.2870 15.06409002317759
STARLINK-1373,45544,53.0526,0.0003934,15.42558706,435.8791012998763,441.2424791212143,1 45544U 20025P   26026.76052883  .00133934  00000+0  29929-2 0  9991,2 45544  53.0526 289.1569 0003934 128.6394 231.4964 15.42558706318854
STARLINK-1294,45551,53.0354,0.0005214,15.8223744,320.6201953620357,327.6093034863361,1 45551U 20025W   26028.00003472  .00243732  00000+0  11294-2 0  9992,2 45551  53.0354 182.6731 0005214 292.6407 255.9310 15.82237440  5839
STARLINK-1325,45554,53.034,0.0005701,16.15117518,229.07275562541508,236.61059351015683,1 45554U 20025Z   26028.63465063  .02218627  58268-2  17813-2 0  9994,2 45554  53.0340 165.1143 0005701 286.1698  73.8710 16.15117518320764
STARLINK-1327,45555,53.053,0.0003613,15.45410826,427.7113669199407,432.63105043152973,1 45555U 20025AA  26028.00003472  .00113778  00000+0  23162-2 0  9999,2 45555  53.0530 261.8386 0003613 131.8769  76.6545 15.45410826  5749
STARLINK-1356,45564,53.0541,0.0001266,15.38708622,449.06256665157343,450.79143245626074,1 45564U 20025AK  26028.00003472  .00084532  00000+0  21633-2 0  9995,2 45564  53.0541 266.7957 0001266  75.9348 104.9127 15.38708622  5749
STARLINK-1357,45565,53.0573,0.0005804,15.46490688,423.051796851586,430.95120162150033,1 45565U 20025AL  26027.28558897  .00122768  00000+0  24041-2 0  9991,2 45565  53.0573 237.0108 0005804 127.1986 232.9551 15.46490688319632
STARLINK-1361,45567,53.0546,0.0001722,15.37393858,452.64284383439553,454.99576958642683,1 45567U 20025AN  26028.00003472  .02469538  00000+0  58641-1 0  9991,2 45567  53.0546 267.2900 0001722  99.6428  90.4563 15.37393858  5697
STARLINK-1363,45568,53.0475,8.32e-05,15.64708841,373.5144741699669,374.6380424561494,1 45568U 20025AP  26028.00003472  .00203640  00000+0  20137-2 0  9990,2 45568  53.0475 239.3192 0000832  27.6164  17.5621 15.64708841  5823
STARLINK-1366,45569,53.048,5.35e-05,15.6448156,374.3689186477686,375.09147543785184,1 45569U 20025AQ  26028.00003472  .00197517  00000+0  19724-2 0  9996,2 45569  53.0480 239.9515 0000535  70.7536 317.7189 15.64481560  5827
STARLINK-1376,45570,53.1544,0.0001302,15.29351903,476.85586804189006,478.6411406272191,1 45570U 20025AR  26027.94052023  .00000549  00000+0  31350-4 0  9995,2 45570  53.1544 266.8298 0001302  67.8490 292.2649 15.29351903319269
STARLINK-1320,45572,53.0507,0.000577,15.5950181,385.19321879472864,393.00260788472315,1 45572U 20025AT  26028.00003472  .00125430  00000+0  15343-2 0  9998,2 45572  53.0507 185.2413 0005770 219.9497 224.5041 15.59501810  5883
STARLINK-1321,45573,53.0547,0.0003591,15.41508525,439.20745135279503,444.1054270008117,1 45573U 20025AU  26026.63762262  .00082938  00000+0  19359-2 0  9991,2 45573  53.0547 258.6540 0003591 121.0217 239.1140 15.41508525318965
STARLINK-1331,45578,53.0569,0.0001244,15.26684753,484.8772323076564,486.58496269031366,1 45578U 20025AZ  26028.00003472  .01112872  00000+0  38668-1 0  9995,2 45578  53.0569 258.3588 0001244  82.1825 134.8450 15.26684753  5596
STARLINK-1333,45580,53.1601,0.0001156,15.29911263,475.2849744656214,476.86966881678563,1 45580U 20025BB  26026.82659324  .00117987  00000+0  39682-2 0  9998,2 45580  53.1601 272.2563 0001156  69.1480 290.9645 15.29911263319094
STARLINK-1335,45581,53.05,0.000233,15.06397989,545.6041137204165,548.8313290205751,1 45581U 20025BC  26027.66109188  .00001624  00000+0  12795-3 0  9997,2 45581  53.0500 260.8006 0002330  92.6080 267.5176 15.06397989319322
STARLINK-1337,45582,53.0536,0.0001628,15.32749009,466.50024918374856,468.7292259494998,1 45582U 20025BD  26028.00003472  .01762648  00000+0  49472-1 0  9997,2 45582  53.0536 257.6924 0001628  85.5742 294.1127 15.32749009  5743
STARLINK-1347,45586,53.0393,0.0008272,15.45106724,425.431931358522,436.6970743248239,1 45586U 20025BH  26027.92978630  .00084468  00000+0  17447-2 0  9992,2 45586  53.0393 225.0622 0008272 122.7491 237.4313 15.45106724319840
STARLINK-1364,45589,53.0552,0.0001389,15.38628744,449.21486615277354,451.1117679808558,1 45589U 20025BL  26028.00003472  .01645100  00000+0  38568-1 0  9991,2 45589  53.0552 257.2000 0001389  57.9968 193.3369 15.38628744  5742
STARLINK-1365,45590,53.0712,0.0001184,15.41238784,441.64457220890563,443.2596877148808,1 45590U 20025BM  26028.00003472  .00004534  00000+0  11701-3 0  9994,2 45590  53.0712 286.7724 0001184 118.4472 263.2421 15.41238784  5749
STARLINK-1443,45660,53.054,0.0001649,15.06410371,546.0377877635492,548.3217572351195,1 45660U 20035D   26027.02434533 -.00002049  00000+0 -11866-3 0  9993,2 45660  53.0540 253.6616 0001649  90.2308 269.8870 15.06410371312454
STARLINK-1446,45663,53.0234,0.0004606,15.40998212,440.0200826061855,446.30386322003415,1 45663U 20035G   26027.84766231  .00025117  00000+0  60750-3 0  9994,2 45663  53.0234 193.1080 0004606 135.0858 225.0519 15.40998212313373
STARLINK-1448,45665,53.065,8.96e-05,15.3794818,451.565585847261,452.78957822036136,1 45665U 20035J   26028.00003472  .01103429  00000+0  26631-1 0  9998,2 45665  53.0650 247.3253 0000896  99.7032  61.5916 15.37948180  5746
